160P/LINEAR,e,15.6072,333.3586,12.7952,3.777331,0.1342538,0.52589740,179.0095,07/28.0/2023,2000,g 15.5,2.0
# From MPC 75721
161P/Hartley-IRAS,e,95.7977,1.5698,47.0529,7.714986,0.0459940,0.83563728,303.9325,07/28.0/2023,2000,g  8.5,6.0
# From MPEC 2023-M14
162P/SidingSpring,e,27.5658,30.8880,357.1985,3.092175,0.1812625,0.58317607,174.3300,07/28.0/2023,2000,g 13.7,4.0
# From MPEC 2021-S45
163P/NEAT,e,12.7186,102.0655,349.5589,3.764098,0.1349624,0.45284434,195.9900,07/28.0/2023,2000,g 14.5,4.0
# From MPEC 2021-F20
164P/Christensen,e,16.2730,88.2650,325.8919,3.653737,0.1411231,0.54110762,265.5346,07/28.0/2023,2000,g 11.0,4.0
# From MPC 75721
165P/LINEAR,e,15.8960,0.8437,125.7646,17.83000,0.0130911,0.61715743,110.8325,07/28.0/2023,2000,g 11.5,2.0
# From MPC 75722
166P/NEAT,e,15.3878,64.3321,321.7331,13.81857,0.0191871,0.38458672,148.1405,07/28.0/2023,2000,g  5.5,4.0
# From MPEC 2023-J29
167P/CINEOS,e,19.0970,295.7604,344.7853,16.25479,0.0150394,0.26916143,122.2152,07/28.0/2023,2000,g  9.5,2.0
# From MPEC 2023-J29
168P/Hergenrother,e,21.6119,355.4298,15.0536,3.586992,0.1450803,0.62166508,210.1728,07/28.0/2023,2000,g 15.5,4.0
# From MPEC 2023-J95
169P/NEAT,e,11.2976,176.1004,218.0614,2.602910,0.2347013,0.76834782,89.9602,07/28.0/2023,2000,g 16.0,2.0
# From MPEC 2023-O39
170P/Christensen,e,10.1123,142.8616,225.3348,4.212756,0.1139868,0.30601292,11.3832,07/28.0/2023,2000,g 12.0,4.0
# From MPC102102
171P/Spahr,e,21.9498,101.6892,347.0494,3.553418,0.1471413,0.50233376,243.7259,07/28.0/2023,2000,g 13.5,4.0
# From MPEC 2023-J95
172P/Yeung,e,11.2253,30.8745,209.1733,4.218320,0.1137614,0.20448554,265.5720,07/28.0/2023,2000,g 13.0,4.0
# From MPEC 2023-N01
173P/Mueller,e,16.4892,100.3720,29.1545,5.710655,0.0722229,0.26168387,42.5084,07/28.0/2023,2000,g  7.5,4.0
# From MPC 92985
174P/Echeclus,e,4.3438,173.1913,163.4628,10.74884,0.0279680,0.45662009,84.3174,07/28.0/2023,2000,g  9.4,2.0
# From MPC114608
175P/Hergenrother,e,4.9092,110.7225,74.9892,3.656064,0.1409884,0.38506517,200.8066,07/28.0/2023,2000,g 14.0,4.0
# From MPC 89015
176P/LINEAR,e,0.2313,345.7404,34.3769,3.195234,0.1725639,0.19248810,43.0759,07/28.0/2023,2000,g 15.1,2.0
# From MPEC 2020-L06
177P/Barnard,e,31.0678,271.8203,60.7155,24.50333,0.0081258,0.95502117,50.1275,07/28.0/2023,2000,g 15.0,4.0
# From MPEC 2021-F20
178P/Hug-Bell,e,11.0881,102.8193,297.8772,3.632720,0.1423496,0.48253599,157.3903,07/28.0/2023,2000,g 14.6,4.0
# From MPEC 2023-HD1
179P/Jedicke,e,19.8967,115.5152,297.0251,5.933097,0.0681996,0.30583564,28.8431,07/28.0/2023,2000,g 12.5,4.0
# From MPEC 2023-N01
180P/NEAT,e,16.8600,84.5647,94.6635,3.867837,0.1295692,0.35342905,2.0506,07/28.0/2023,2000,g 11.0,4.0
# From MPC 89012
181P/Shoemaker-Levy,e,17.4866,35.3935,336.2881,3.876279,0.1291462,0.70052447,72.9988,07/28.0/2023,2000,g 11.5,4.0
# From MPEC 2014-J10
182P/LONEOS,e,16.2302,72.4589,54.2104,2.949960,0.1945270,0.66332458,85.9296,07/28.0/2023,2000,g 18.0,4.0
# From MPEC 2023-A50
183P/Korlevic-Juric,e,18.9088,3.9707,166.4232,4.670062,0.0976608,0.10615288,209.4780,07/28.0/2023,2000,g 12.5,2.0
# From MPEC 2020-W26
184P/Lovas,e,4.5737,173.2413,186.5691,3.798066,0.1331559,0.55079916,133.7759,07/28.0/2023,2000,g 13.5,4.0
# From MPEC 2023-O39
185P/Petriew,e,14.0147,214.1144,181.8869,3.098377,0.1807185,0.69974545,2.7293,07/28.0/2023,2000,g 15.0,4.0
# From MPEC 2022-X67
186P/Garradd,e,28.6402,326.2550,269.3564,4.852989,0.0921914,0.12420578,153.9724,07/28.0/2023,2000,g  7.5,4.0
# From MPEC 2020-SI8
187P/LINEAR,e,13.6406,109.8712,131.2375,4.563184,0.1011119,0.15289329,192.6102,07/28.0/2023,2000,g  9.0,4.0
# From MPEC 2023-J29
188P/LINEAR-Mueller,e,10.5249,358.9566,26.6761,4.369638,0.1079036,0.41690398,253.1992,07/28.0/2023,2000,g 11.5,4.0
# From MPEC 2022-QD9
189P/NEAT,e,20.0763,281.6826,16.3193,2.944826,0.1950359,0.58886910,64.9774,07/28.0/2023,2000,g 19.0,4.0
# From MPEC 2020-K19
190P/Mueller,e,2.1742,335.5198,50.4474,4.229266,0.1133200,0.52226566,301.6369,07/28.0/2023,2000,g 13.0,4.0
# From MPEC 2022-X67
191P/McNaught,e,8.8392,98.2097,284.1738,3.638364,0.1420185,0.38592433,122.0621,07/28.0/2023,2000,g 13.0,4.0
# From MPC 75724
192P/Shoemaker-Levy,e,24.5887,51.6119,313.0718,6.464181,0.0599700,0.77339855,341.9275,07/28.0/2023,2000,g 15.0,4.0
# From MPEC 2022-Y15
193P/LINEAR-NEAT,e,10.6871,335.1810,8.1178,3.577212,0.1456757,0.39349823,102.2486,07/28.0/2023,2000,g 14.0,4.0
# From MPEC 2023-J29
194P/LINEAR,e,11.8093,349.5361,128.5208,4.123231,0.1177193,0.56351924,337.5225,07/28.0/2023,2000,g 16.0,4.0
# From MPEC 2023-D72
195P/Hill,e,36.3704,243.1054,249.4535,6.504546,0.0594126,0.31502251,316.6154,07/28.0/2023,2000,g  8.5,4.0
# From MPEC 2022-YN2
196P/Tichy,e,19.3017,24.1119,12.0441,3.803264,0.1328830,0.42800795,36.1039,07/28.0/2023,2000,g 13.5,4.0
# From MPC 94676
197P/LINEAR,e,25.5315,66.3481,188.7941,2.869404,0.2027760,0.62944398,47.0934,07/28.0/2023,2000,g 16.5,2.0
# From NK 1596
198P/ODAS,e,1.3385,358.2013,69.2463,3.595618,0.1445586,0.44452912,243.6706,07/28.0/2023,2000,g  9.0,4.0
# From MPEC 2023-O39
199P/Shoemaker,e,24.9376,92.3473,191.7692,5.881497,0.0690991,0.50515885,359.2702,07/28.0/2023,2000,g 10.0,4.0
# From MPEC 2022-C56
200P/Larsen,e,12.0986,234.7295,134.3741,4.947753,0.0895555,0.33243599,130.6378,07/28.0/2023,2000,g  9.0,4.0
# From MPC 93588
201P/LONEOS,e,5.7392,19.7435,41.5480,3.354732,0.1604048,0.63746627,127.0444,07/28.0/2023,2000,g 14.0,4.0
# From MPEC 2022-X67
202P/Scotti,e,2.1420,177.3464,274.4507,4.116723,0.1179985,0.25460058,325.2959,07/28.0/2023,2000,g 13.5,4.0
# From MPEC 2021-S45
203P/Korlevic,e,2.9734,290.2689,154.7980,4.669035,0.0976930,0.31594844,121.1136,07/28.0/2023,2000,g 14.5,2.0
# From MPEC 2023-KD6
204P/LINEAR-NEAT,e,6.5959,108.4954,356.6651,3.582477,0.1453546,0.48795562,36.7914,07/28.0/2023,2000,g 14.0,4.0
# From MPEC 2023-O39
205P/Giacobini,e,15.3061,179.6041,154.1805,3.542111,0.1478464,0.56785153,82.8553,07/28.0/2023,2000,g 13.0,4.0
# From MPC 75725
206P/Barnard-Boattini,e,33.6411,202.3306,189.5497,3.490436,0.1511418,0.55152759,132.2815,07/28.0/2023,2000,g 19.0,4.0
# From MPC 75725
207P/NEAT,e,10.2015,198.1603,272.9977,3.882059,0.1288579,0.75837798,335.7993,07/28.0/2023,2000,g 16.0,4.0
# From MPEC 2022-K19
208P/McMillan,e,4.4125,36.3397,310.6303,4.040594,0.1213490,0.37407913,312.3404,07/28.0/2023,2000,g 12.5,4.0
# From MPEC 2023-CD7
209P/LINEAR,e,21.2789,62.7664,152.4647,2.959189,0.1936177,0.67381532,291.7414,07/28.0/2023,2000,g 17.0,2.0
# From MPC105242
210P/Christensen,e,10.2791,93.7994,345.9093,3.162723,0.1752316,0.83381042,211.2767,07/28.0/2023,2000,g 13.5,4.0
# From MPEC 2023-KD6
211P/Hill,e,18.9183,117.1254,4.2982,3.548279,0.1474611,0.34404564,43.6985,07/28.0/2023,2000,g 12.5,4.0
# From MPEC 2021-F20
212P/NEAT,e,22.1436,98.0067,14.0222,3.902381,0.1278526,0.58695654,325.2111,07/28.0/2023,2000,g 17.0,2.0
# From MPEC 2022-GA9
213P/VanNess,e,10.3811,311.2747,5.7775,3.345350,0.1610800,0.40802928,342.8043,07/28.0/2023,2000,g 10.5,4.0
# From MPC 92986
214P/LINEAR,e,15.1829,348.2444,190.1611,3.619043,0.1431573,0.48585108,43.6392,07/28.0/2023,2000,g 13.0,4.0
# From MPEC 2023-B57
215P/NEAT,e,10.5768,56.6758,262.4234,4.332033,0.1093116,0.16587219,147.2411,07/28.0/2023,2000,g 11.0,4.0
# From MPC100284
216P/LINEAR,e,9.0634,359.7978,151.7254,3.857079,0.1301117,0.44851735,338.8109,07/28.0/2023,2000,g 13.0,4.0
# From MPEC 2023-J29
217P/LINEAR,e,12.8622,125.4077,246.9702,3.947791,0.1256530,0.68931011,276.2145,07/28.0/2023,2000,g 12.0,4.0
# From MPEC 2022-K19
218P/LINEAR,e,2.7305,176.0080,59.5237,3.086045,0.1818028,0.62421584,186.6519,07/28.0/2023,2000,g 16.0,4.0
# From MPEC 2023-O39
219P/LINEAR,e,11.5399,230.9533,107.6028,3.645653,0.1415928,0.35403409,331.5750,07/28.0/2023,2000,g 11.0,4.0
# From MPEC 2021-BE3
220P/McNaught,e,8.1264,150.1066,180.6124,3.118184,0.1789993,0.50113433,171.7631,07/28.0/2023,2000,g 15.0,4.0
# From MPEC 2022-UY9
221P/LINEAR,e,11.4888,229.5770,39.9725,3.453057,0.1536026,0.49540310,90.0375,07/28.0/2023,2000,g 14.5,4.0
# From MPC 92277
222P/LINEAR,e,5.0974,6.7734,346.2874,2.898267,0.1997545,0.71475099,302.0960,07/28.0/2023,2000,g 20.0,4.0
# From MPEC 2023-A50
223P/Skiff,e,27.0192,346.7597,37.8872,4.158459,0.1162266,0.41658050,190.6883,07/28.0/2023,2000,g 12.0,4.0
# From MPEC 2023-BF4
224P/LINEAR-NEAT,e,13.3058,40.0373,16.7001,3.444054,0.1542052,0.40585831,46.4115,07/28.0/2023,2000,g 15.5,4.0
# From MPC 75727
225P/LINEAR,e,21.3666,14.2045,3.9128,3.648985,0.1413989,0.63858108,358.4366,07/28.0/2023,2000,g 18.0,4.0
# From MPC106349
226P/Pigott-LINEAR-Kowalski,e,44.0446,54.0131,341.0792,3.766320,0.1348430,0.52905454,339.4696,07/28.0/2023,2000,g 12.5,4.0
# From MPC102956
227P/Catalina-LINEAR,e,7.5091,36.8112,105.5274,3.438212,0.1545984,0.52769279,325.3434,07/28.0/2023,2000,g 16.5,2.0
# From MPEC 2022-HC2
228P/LINEAR,e,7.9132,30.9850,114.7928,4.165876,0.1159163,0.17646103,143.4127,07/28.0/2023,2000,g 14.1,4.0
# From MPC106349
229P/Gibbs,e,26.0922,157.8953,224.1097,3.925383,0.1267304,0.37800943,285.6719,07/28.0/2023,2000,g 13.0,4.0
# From MPEC 2023-KD6
230P/LINEAR,e,15.4680,106.9678,313.4808,3.453277,0.1535879,0.54564461,76.1140,07/28.0/2023,2000,g 13.0,4.0
# From MPEC 2022-K19
231P/LINEAR-NEAT,e,12.2835,132.9263,44.1822,4.050708,0.1208948,0.24172760,182.2210,07/28.0/2023,2000,g 14.5,2.0
# From MPC112394
232P/Hill,e,14.6439,56.0281,53.2144,4.474013,0.1041498,0.33510273,163.9154,07/28.0/2023,2000,g 11.5,4.0
# From MPEC 2021-N06
233P/La Sagra,e,11.2899,74.9192,26.9548,3.028023,0.1870532,0.41242159,192.5061,07/28.0/2023,2000,g 15.0,4.0
# From MPEC 2022-K19
234P/LINEAR,e,11.5355,179.5686,357.3834,3.795621,0.1332845,0.25663718,299.5556,07/28.0/2023,2000,g 12.0,4.0
# From MPC110497
235P/LINEAR,e,10.8063,202.3921,344.9809,3.555667,0.1470017,0.43083173,235.3766,07/28.0/2023,2000,g 12.0,4.0
# From MPEC 2023-J29
236P/LINEAR,e,16.3532,245.5697,119.3650,3.727297,0.1369661,0.50940551,283.7561,07/28.0/2023,2000,g 14.0,4.0
# From MPEC 2023-O39
237P/LINEAR,e,14.0167,245.3594,25.2644,3.510394,0.1498547,0.43395071,11.1362,07/28.0/2023,2000,g 14.5,2.0
# From MPEC 2022-YN2
